     2.100          NAVIGATION                              RINEX VERSION / TYPE
fic2rin                                 05/16/2010 00:58:13 PGM / RUN BY / DATE
                                                            END OF HEADER
13 10  5 15 18  0  0.0  .304406043142D-03 -.454747350886D-12  .000000000000D+00
     .670000000000D+02  .456562500000D+02  .416874507354D-08 -.222918209342D+01
     .249221920967D-05  .447844853625D-02  .329688191414D-06  .515375989723D+04
     .583200000000D+06  .186264514923D-07  .177994426498D+01  .875443220139D-07
     .992659692123D+00  .391468750000D+03  .170966374355D+01 -.808033657845D-08
     .141077305007D-09  .100000000000D+01  .158300000000D+04  .000000000000D+00
     .240000000000D+01  .000000000000D+00 -.107102096081D-07  .670000000000D+02
     .576006000000D+06  .400000000000D+01
14 10  5 15 18  0  0.0  .458927825093D-04  .432009983342D-11  .000000000000D+00
     .610000000000D+02  .501562500000D+02  .435125267571D-08 -.239259561952D+01
     .271387398243D-05  .502821186092D-02 -.689178705215D-07  .515373813820D+04
     .583200000000D+06  .856816768646D-07  .175820768834D+01 -.223517417908D-07
     .985932080051D+00  .394562500000D+03 -.213125849140D+01 -.823891461244D-08
     .146791828755D-09  .100000000000D+01  .158300000000D+04  .000000000000D+00
     .240000000000D+01  .000000000000D+00 -.884756445885D-08  .610000000000D+02
     .576006000000D+06  .400000000000D+01
15 10  5 15 18  0  0.0 -.272490084171D-03  .579802872380D-11  .000000000000D+00
     .230000000000D+02  .533125000000D+02  .505806783168D-08 -.250827989405D+01
     .278465449810D-05  .247232872061D-02  .409781932831D-07  .515375755310D+04
     .583200000000D+06 -.316649675369D-07  .169448176844D+01 -.391155481339D-07
     .953558466600D+00  .376812500000D+03 -.170151855508D+00 -.855178478759D-08
     .112147528538D-09  .100000000000D+01  .158300000000D+04  .000000000000D+00
     .240000000000D+01  .000000000000D+00 -.977888703346D-08  .230000000000D+02
     .576006000000D+06  .400000000000D+01
16 10  5 15 18  0  0.0 -.717653892934D-04 -.375166564481D-11  .000000000000D+00
     .530000000000D+02 -.578750000000D+02  .388194741298D-08 -.766394952637D+00
    -.302307307720D-05  .594760628883D-02  .111069530249D-04  .515376625443D+04
     .583200000000D+06  .298023223877D-07 -.245081356215D+01 -.135973095894D-06
     .972053038299D+00  .173375000000D+03 -.226449162254D+00 -.755602902465D-08
     .429303596504D-09  .100000000000D+01  .158300000000D+04  .000000000000D+00
     .240000000000D+01  .000000000000D+00 -.977888703346D-08  .530000000000D+02
     .576006000000D+06  .400000000000D+01
17 10  5 15 18  0  0.0  .150901265442D-03  .238742359215D-11  .000000000000D+00
     .910000000000D+02  .959375000000D+01  .480948604868D-08 -.196071156463D+01
     .508502125740D-06  .541822984815D-02  .546127557755D-05  .515359210777D+04
     .583200000000D+06  .558793544769D-08 -.140765289487D+01 -.949949026108D-07
     .959701720435D+00  .275031250000D+03 -.250699872891D+01 -.801104797802D-08
     .311441544219D-09  .100000000000D+01  .158300000000D+04  .000000000000D+00
     .340000000000D+01  .000000000000D+00 -.102445483208D-07  .910000000000D+02
     .576006000000D+06  .400000000000D+01
18 10  5 15 18  0  0.0  .683977268636D-04  .238742359215D-11  .000000000000D+00
     .940000000000D+02  .142250000000D+03  .486805991709D-08 -.482213078659D+00
     .751577317715D-05  .113226859830D-01  .893697142601D-05  .515370033264D+04
     .583200000000D+06  .372529029846D-08  .686393837961D+00  .171363353729D-06
     .937821494018D+00  .198000000000D+03 -.234149779427D+01 -.829820279631D-08
     .371444043564D-10  .100000000000D+01  .158300000000D+04  .000000000000D+00
     .240000000000D+01  .000000000000D+00 -.107102096081D-07  .940000000000D+02
     .576006000000D+06  .400000000000D+01
19 10  5 15 18  0  0.0 -.351429916918D-04 -.272848410532D-11  .000000000000D+00
     .700000000000D+02  .971875000000D+01  .487056002123D-08 -.258250187813D+01
     .618398189545D-06  .648625870235D-02  .563450157642D-05  .515372324944D+04
     .583200000000D+06 -.558793544769D-07 -.135256329137D+01  .000000000000D+00
     .957331542987D+00  .272062500000D+03 -.164406278399D+00 -.803176312660D-08
     .304655547269D-09  .100000000000D+01  .158300000000D+04  .000000000000D+00
     .240000000000D+01  .000000000000D+00 -.149011611938D-07  .700000000000D+02
     .576006000000D+06  .400000000000D+01
21 10  5 15 18  0  0.0 -.603422522545D-04 -.261479726760D-11  .000000000000D+00
     .760000000000D+02  .937500000000D+00  .522271754715D-08  .619884265834D+00
     .171363353729D-06  .165277289925D-01  .865384936333D-05  .515367149734D+04
     .583200000000D+06 -.145286321640D-06 -.369991289839D+00  .281259417534D-06
     .932809346499D+00  .200312500000D+03 -.248579554976D+01 -.832998983466D-08
    -.661456123731D-09  .100000000000D+01  .158300000000D+04  .000000000000D+00
     .240000000000D+01  .000000000000D+00 -.121071934700D-07  .760000000000D+02
     .576006000000D+06  .400000000000D+01
22 10  5 15 18  0  0.0  .172048341483D-03 -.795807864051D-12  .000000000000D+00
     .100000000000D+02  .144312500000D+03  .484984487265D-08 -.141950776856D+01
     .754557549953D-05  .523178954609D-02  .946782529354D-05  .515372381783D+04
     .583200000000D+06  .484287738800D-07  .691326875259D+00  .111758708954D-06
     .935500195590D+00  .182625000000D+03 -.193755299943D+01 -.811105214359D-08
     .539308178636D-10  .100000000000D+01  .158300000000D+04  .000000000000D+00
     .240000000000D+01  .000000000000D+00 -.176951289177D-07  .100000000000D+02
     .576006000000D+06  .400000000000D+01
23 10  5 15 18  0  0.0  .370728783309D-03 -.136424205266D-11  .000000000000D+00
     .160000000000D+02  .639687500000D+02  .470412451710D-08 -.311496798635D+01
     .337138772011D-05  .663242605515D-02  .633299350739D-06  .515369017601D+04
     .583200000000D+06 -.121071934700D-06  .171944780549D+01  .391155481339D-07
     .967768528678D+00  .374281250000D+03  .301106939533D+01 -.829820279631D-08
     .146434671020D-09  .100000000000D+01  .158300000000D+04  .000000000000D+00
     .240000000000D+01  .000000000000D+00 -.200234353542D-07  .160000000000D+02
     .576006000000D+06  .400000000000D+01
24 10  5 15 18  0  0.0  .287565868348D-03  .318323145621D-11  .000000000000D+00
     .530000000000D+02  .353125000000D+01  .472091093060D-08 -.180922499458D+01
     .154599547386D-06  .568208168261D-02  .930763781071D-05  .515486912918D+04
     .583200000000D+06 -.819563865662D-07 -.331745668047D+00 -.689178705215D-07
     .949446247767D+00  .195562500000D+03 -.476605843861D+00 -.794068790438D-08
    -.492520515456D-09  .100000000000D+01  .158300000000D+04  .000000000000D+00
     .240000000000D+01  .000000000000D+00 -.139698386192D-08  .530000000000D+02
     .576006000000D+06  .400000000000D+01
26 10  5 15 18  0  0.0 -.522797927260D-04 -.511590769747D-11  .000000000000D+00
     .380000000000D+02  .338125000000D+02  .420588947789D-08  .204925637543D+01
     .129081308842D-05  .194413906429D-01  .260770320892D-07  .515235981178D+04
     .583200000000D+06 -.707805156708D-07  .177656739216D+01 -.484287738800D-06
     .990395965373D+00  .396937500000D+03  .109126881317D+01 -.805033532878D-08
     .839320675361D-10  .100000000000D+01  .158300000000D+04  .000000000000D+00
     .240000000000D+01  .000000000000D+00 -.605359673500D-08  .380000000000D+02
     .576006000000D+06  .400000000000D+01
27 10  5 15 18  0  0.0  .152213498950D-03  .341060513165D-11  .000000000000D+00
     .690000000000D+02 -.140937500000D+03  .399480925698D-08 -.236276816671D+01
    -.696629285812D-05  .215263664722D-01  .452436506748D-05  .515363553047D+04
     .583200000000D+06  .150874257088D-06  .270557531384D+01  .223517417908D-06
     .978434282572D+00  .294312500000D+03 -.142251327670D+01 -.762103173228D-08
    -.240367155114D-09  .100000000000D+01  .158300000000D+04  .000000000000D+00
     .240000000000D+01  .000000000000D+00 -.419095158577D-08  .690000000000D+02
     .576006000000D+06  .400000000000D+01
28 10  5 15 18  0  0.0 -.161565840244D-04  .909494701773D-12  .000000000000D+00
     .880000000000D+02 -.390625000000D+02  .402445334892D-08 -.130017408250D+01
    -.200979411602D-05  .159294310724D-01  .107996165752D-04  .515367429161D+04
     .583200000000D+06  .219792127609D-06 -.244308082149D+01  .355765223503D-06
     .970284856030D+00  .176343750000D+03 -.195500970682D+01 -.769067749044D-08
     .323584907182D-09  .100000000000D+01  .158300000000D+04  .000000000000D+00
     .340000000000D+01  .000000000000D+00 -.107102096081D-07  .880000000000D+02
     .576006000000D+06  .400000000000D+01
29 10  5 15 18  0  0.0  .120093114674D-03  .272848410532D-11  .000000000000D+00
     .480000000000D+02  .550000000000D+01  .491484758027D-08  .803137908866D+00
     .227242708206D-06  .306018558331D-02  .548362731934D-05  .515372957993D+04
     .583200000000D+06  .242143869400D-07 -.139939070075D+01 -.465661287308D-07
     .960030596122D+00  .274500000000D+03 -.129389839508D+01 -.812319550656D-08
     .190722230061D-09  .100000000000D+01  .158300000000D+04  .000000000000D+00
     .240000000000D+01  .000000000000D+00 -.884756445885D-08  .480000000000D+02
     .576006000000D+06  .400000000000D+01
31 10  5 15 18  0  0.0 -.364021398127D-04  .216004991671D-11  .000000000000D+00
     .370000000000D+02 -.146437500000D+03  .410195657724D-08  .151081462283D+01
    -.772438943386D-05  .742177094799D-02  .449270009995D-05  .515369027710D+04
     .583200000000D+06  .152736902237D-06  .276135124829D+01 -.521540641785D-07
     .976964030885D+00  .297156250000D+03 -.105413253239D+01 -.798640409436D-08
    -.412874340731D-09  .100000000000D+01  .158300000000D+04  .000000000000D+00
     .240000000000D+01  .000000000000D+00 -.130385160446D-07  .370000000000D+02
     .576006000000D+06  .400000000000D+01
